[{"OBJECT_NAME":"RESURS-P 5","OBJECT_ID":"2024-250A","EPOCH":"2026-03-09T23:31:56.908992","MEAN_MOTION":15.32839945,"ECCENTRICITY":0.00026027,"INCLINATION":97.276,"RA_OF_ASC_NODE":355.9792,"ARG_OF_PERICENTER":63.1234,"MEAN_ANOMALY":297.0274,"EPHEMERIS_TYPE":0,"CLASSIFICATION_TYPE":"U","NORAD_CAT_ID":62430,"ELEMENT_SET_NO":999,"REV_AT_EPOCH":6735,"BSTAR":0.00015600887,"MEAN_MOTION_DOT":4.871e-5,"MEAN_MOTION_DDOT":0},{"OBJECT_NAME":"STARLINK-35668","OBJECT_ID":"2025-257X","EPOCH":"2026-03-09T16:45:06.030144","MEAN_MOTION":15.3019202,"ECCENTRICITY":0.00010004,"INCLINATION":53.1575,"RA_OF_ASC_NODE":217.058,"ARG_OF_PERICENTER":83.995,"MEAN_ANOMALY":276.1164,"EPHEMERIS_TYPE":0,"CLASSIFICATION_TYPE":"U","NORAD_CAT_ID":66401,"ELEMENT_SET_NO":999,"REV_AT_EPOCH":1973,"BSTAR":0.00086319725,"MEAN_MOTION_DOT":0.00025287,"MEAN_MOTION_DDOT":0}]
